start=new Date('2023-06-06T00:00:00.000Z').valueOf();
sats=[{"APOAPSIS":"540.366","COUNTRY_CODE":"US","PERIOD":"95.437","ECCENTRICITY":"0.00009030","TLE_LINE1":"1 52497U 22049AY  23156.57667484  .00001108  00000-0  87668-4 0  9997","REV_AT_EPOCH":"6020","PERIAPSIS":"539.117","BSTAR":"0.00008766800000","MEAN_ELEMENT_THEORY":"SGP4","REF_FRAME":"TEME","EPHEMERIS_TYPE":"0","FILE":"3925691","OBJECT_TYPE":"PAYLOAD","NORAD_CAT_ID":"52497","OBJECT_ID":"2022-049AY","MEAN_ANOMALY":"266.7145","SEMIMAJOR_AXIS":"6917.877","MEAN_MOTION_DDOT":"0.0000000000000","OBJECT_NAME":"STARLINK-3884","SITE":"AFETR","ELEMENT_SET_NO":"999","GP_ID":"233257775","RA_OF_ASC_NODE":"254.7121","TLE_LINE2":"2 52497  53.2158 254.7121 0000903  93.3950 266.7145 15.08841266 60206","MEAN_MOTION":"15.08841266","EPOCH":"2023-06-05T13:50:24.706176","ARG_OF_PERICENTER":"93.3950","TIME_SYSTEM":"UTC","DECAY_DATE":null,"MEAN_MOTION_DOT":"0.00001108","INCLINATION":"53.2158","CENTER_NAME":"EARTH","RCS_SIZE":"LARGE","LAUNCH_DATE":"2022-05-06","CLASSIFICATION_TYPE":"U"},{"LAUNCH_DATE":"2022-05-06","CLASSIFICATION_TYPE":"U","RCS_SIZE":"LARGE","INCLINATION":"53.2153","CENTER_NAME":"EARTH","MEAN_MOTION_DOT":"0.00001056","TIME_SYSTEM":"UTC","DECAY_DATE":null,"MEAN_MOTION":"15.08839432","EPOCH":"2023-06-05T14:50:01.726656","ARG_OF_PERICENTER":"89.4350","TLE_LINE2":"2 52498  53.2153 244.5327 0000861  89.4350 270.6740 15.08839432 60342","RA_OF_ASC_NODE":"244.5327","GP_ID":"233285485","ELEMENT_SET_NO":"999","OBJECT_NAME":"STARLINK-3925","SITE":"AFETR","MEAN_ANOMALY":"270.6740","MEAN_MOTION_DDOT":"0.0000000000000","SEMIMAJOR_AXIS":"6917.882","OBJECT_ID":"2022-049AZ","NORAD_CAT_ID":"52498","EPHEMERIS_TYPE":"0","FILE":"3925751","OBJECT_TYPE":"PAYLOAD","MEAN_ELEMENT_THEORY":"SGP4","REF_FRAME":"TEME","BSTAR":"0.00008441600000","REV_AT_EPOCH":"6034","PERIAPSIS":"539.151","ECCENTRICITY":"0.00008610","TLE_LINE1":"1 52498U 22049AZ  23156.61807554  .00001056  00000-0  84416-4 0  9997","COUNTRY_CODE":"US","PERIOD":"95.438","APOAPSIS":"540.343"},{"MEAN_MOTION_DOT":"0.00000421","CENTER_NAME":"EARTH","INCLINATION":"53.2160","RCS_SIZE":"LARGE","LAUNCH_DATE":"2022-05-06","CLASSIFICATION_TYPE":"U","TLE_LINE2":"2 52499  53.2160 254.7311 0000830  93.2123 266.8964 15.08843457 60363","EPOCH":"2023-06-05T13:45:06.694560","MEAN_MOTION":"15.08843457","ARG_OF_PERICENTER":"93.2123","DECAY_DATE":null,"TIME_SYSTEM":"UTC","ELEMENT_SET_NO":"999","GP_ID":"233262195","RA_OF_ASC_NODE":"254.7311","NORAD_CAT_ID":"52499","OBJECT_ID":"2022-049BA","MEAN_ANOMALY":"266.8964","MEAN_MOTION_DDOT":"0.0000000000000","SEMIMAJOR_AXIS":"6917.870","OBJECT_NAME":"STARLINK-3894","SITE":"AFETR","REV_AT_EPOCH":"6036","PERIAPSIS":"539.161","BSTAR":"0.00004453700000","MEAN_ELEMENT_THEORY":"SGP4","REF_FRAME":"TEME","EPHEMERIS_TYPE":"0","FILE":"3925715","OBJECT_TYPE":"PAYLOAD","ECCENTRICITY":"0.00008300","TLE_LINE1":"1 52499U 22049BA  23156.57299415  .00000421  00000-0  44537-4 0  9999","APOAPSIS":"540.309","COUNTRY_CODE":"US","PERIOD":"95.437"},{"PERIAPSIS":"538.874","REV_AT_EPOCH":"6034","BSTAR":"-0.00017073000000","MEAN_ELEMENT_THEORY":"SGP4","REF_FRAME":"TEME","EPHEMERIS_TYPE":"0","FILE":"3925751","OBJECT_TYPE":"PAYLOAD","NORAD_CAT_ID":"52500","OBJECT_ID":"2022-049BB","MEAN_ANOMALY":"275.1648","MEAN_MOTION_DDOT":"0.0000000000000","SEMIMAJOR_AXIS":"6917.819","OBJECT_NAME":"STARLINK-3866","SITE":"AFETR","APOAPSIS":"540.493","COUNTRY_CODE":"US","PERIOD":"95.436","TLE_LINE1":"1 52500U 22049BB  23156.61438354 -.00003006  00000-0 -17073-3 0  9992","ECCENTRICITY":"0.00011700","MEAN_MOTION_DOT":"-0.00003006","INCLINATION":"53.2157","CENTER_NAME":"EARTH","RCS_SIZE":"LARGE","LAUNCH_DATE":"2022-05-06","CLASSIFICATION_TYPE":"U","ELEMENT_SET_NO":"999","GP_ID":"233285987","RA_OF_ASC_NODE":"244.5487","TLE_LINE2":"2 52500  53.2157 244.5487 0001170  84.9477 275.1648 15.08860156 60345","MEAN_MOTION":"15.08860156","EPOCH":"2023-06-05T14:44:42.737856","ARG_OF_PERICENTER":"84.9477","DECAY_DATE":null,"TIME_SYSTEM":"UTC"},{"RCS_SIZE":"LARGE","LAUNCH_DATE":"2022-05-06","CLASSIFICATION_TYPE":"U","MEAN_MOTION_DOT":"-0.00000346","CENTER_NAME":"EARTH","INCLINATION":"53.2166","MEAN_MOTION":"15.08839567","EPOCH":"2023-06-05T13:13:17.244192","ARG_OF_PERICENTER":"77.1642","DECAY_DATE":null,"TIME_SYSTEM":"UTC","TLE_LINE2":"2 52501  53.2166 254.6279 0000728  77.1642 282.9432 15.08839567 60207","GP_ID":"233257276","RA_OF_ASC_NODE":"254.6279","ELEMENT_SET_NO":"999","MEAN_ANOMALY":"282.9432","SEMIMAJOR_AXIS":"6917.882","MEAN_MOTION_DDOT":"0.0000000000000","OBJECT_NAME":"STARLINK-3907","SITE":"AFETR","NORAD_CAT_ID":"52501","OBJECT_ID":"2022-049BC","MEAN_ELEMENT_THEORY":"SGP4","REF_FRAME":"TEME","EPHEMERIS_TYPE":"0","FILE":"3925691","OBJECT_TYPE":"PAYLOAD","PERIAPSIS":"539.243","REV_AT_EPOCH":"6020","BSTAR":"-0.00000366390000","TLE_LINE1":"1 52501U 22049BC  23156.55089403 -.00000346  00000-0 -36639-5 0  9998","ECCENTRICITY":"0.00007280","COUNTRY_CODE":"US","PERIOD":"95.438","APOAPSIS":"540.250"},{"REV_AT_EPOCH":"6033","PERIAPSIS":"539.159","BSTAR":"0.00008667800000","MEAN_ELEMENT_THEORY":"SGP4","REF_FRAME":"TEME","EPHEMERIS_TYPE":"0","FILE":"3925691","OBJECT_TYPE":"PAYLOAD","NORAD_CAT_ID":"52502","OBJECT_ID":"2022-049BD","MEAN_ANOMALY":"269.6992","MEAN_MOTION_DDOT":"0.0000000000000","SEMIMAJOR_AXIS":"6917.858","OBJECT_NAME":"STARLINK-3912","SITE":"AFETR","APOAPSIS":"540.288","COUNTRY_CODE":"US","PERIOD":"95.437","ECCENTRICITY":"0.00008160","TLE_LINE1":"1 52502U 22049BD  23156.54447121  .00001092  00000-0  86678-4 0  9997","MEAN_MOTION_DOT":"0.00001092","CENTER_NAME":"EARTH","INCLINATION":"53.2154","RCS_SIZE":"LARGE","LAUNCH_DATE":"2022-05-06","CLASSIFICATION_TYPE":"U","ELEMENT_SET_NO":"999","GP_ID":"233258527","RA_OF_ASC_NODE":"244.8902","TLE_LINE2":"2 52502  53.2154 244.8902 0000816  90.4094 269.6992 15.08847288 60332","MEAN_MOTION":"15.08847288","EPOCH":"2023-06-05T13:04:02.312544","ARG_OF_PERICENTER":"90.4094","DECAY_DATE":null,"TIME_SYSTEM":"UTC"},{"GP_ID":"233285236","RA_OF_ASC_NODE":"244.5917","ELEMENT_SET_NO":"999","ARG_OF_PERICENTER":"90.0949","MEAN_MOTION":"15.08846392","EPOCH":"2023-06-05T14:46:06.459456","DECAY_DATE":null,"TIME_SYSTEM":"UTC","TLE_LINE2":"2 52503  53.2155 244.5917 0000826  90.0949 270.0138 15.08846392 60347","RCS_SIZE":"LARGE","CLASSIFICATION_TYPE":"U","LAUNCH_DATE":"2022-05-06","MEAN_MOTION_DOT":"0.00001267","INCLINATION":"53.2155","CENTER_NAME":"EARTH","PERIOD":"95.437","COUNTRY_CODE":"US","APOAPSIS":"540.297","ECCENTRICITY":"0.00008260","TLE_LINE1":"1 52503U 22049BE  23156.61535254  .00001267  00000-0  97653-4 0  9990","REF_FRAME":"TEME","MEAN_ELEMENT_THEORY":"SGP4","OBJECT_TYPE":"PAYLOAD","FILE":"3925751","EPHEMERIS_TYPE":"0","REV_AT_EPOCH":"6034","PERIAPSIS":"539.154","BSTAR":"0.00009765300000","MEAN_MOTION_DDOT":"0.0000000000000","SEMIMAJOR_AXIS":"6917.861","MEAN_ANOMALY":"270.0138","SITE":"AFETR","OBJECT_NAME":"STARLINK-3861","NORAD_CAT_ID":"52503","OBJECT_ID":"2022-049BE"},{"DECAY_DATE":null,"TIME_SYSTEM":"UTC","ARG_OF_PERICENTER":"81.5854","MEAN_MOTION":"15.08844105","EPOCH":"2023-06-05T17:54:12.200256","TLE_LINE2":"2 52533  53.2181 334.0974 0000773  81.5854 278.5226 15.08844105 59279","RA_OF_ASC_NODE":"334.0974","GP_ID":"233285736","ELEMENT_SET_NO":"999","CLASSIFICATION_TYPE":"U","LAUNCH_DATE":"2022-05-13","RCS_SIZE":"LARGE","INCLINATION":"53.2181","CENTER_NAME":"EARTH","MEAN_MOTION_DOT":"0.00000968","ECCENTRICITY":"0.00007730","TLE_LINE1":"1 52533U 22051A   23156.74597454  .00000968  00000-0  78896-4 0  9995","PERIOD":"95.437","COUNTRY_CODE":"US","APOAPSIS":"540.268","SITE":"AFWTR","OBJECT_NAME":"STARLINK-3951","MEAN_MOTION_DDOT":"0.0000000000000","SEMIMAJOR_AXIS":"6917.868","MEAN_ANOMALY":"278.5226","OBJECT_ID":"2022-051A","NORAD_CAT_ID":"52533","OBJECT_TYPE":"PAYLOAD","FILE":"3925751","EPHEMERIS_TYPE":"0","REF_FRAME":"TEME","MEAN_ELEMENT_THEORY":"SGP4","BSTAR":"0.00007889600000","REV_AT_EPOCH":"5927","PERIAPSIS":"539.198"},{"RCS_SIZE":"LARGE","CLASSIFICATION_TYPE":"U","LAUNCH_DATE":"2022-05-13","MEAN_MOTION_DOT":"-0.00000818","INCLINATION":"53.2180","CENTER_NAME":"EARTH","GP_ID":"233285988","RA_OF_ASC_NODE":"333.3949","ELEMENT_SET_NO":"999","ARG_OF_PERICENTER":"86.4260","MEAN_MOTION":"15.08828733","EPOCH":"2023-06-05T20:54:22.484448","DECAY_DATE":null,"TIME_SYSTEM":"UTC","TLE_LINE2":"2 52534  53.2180 333.3949 0001049  86.4260 273.6852 15.08828733 60031","REF_FRAME":"TEME","MEAN_ELEMENT_THEORY":"SGP4","OBJECT_TYPE":"PAYLOAD","FILE":"3925751","EPHEMERIS_TYPE":"0","REV_AT_EPOCH":"6003","PERIAPSIS":"539.054","BSTAR":"-0.00003335300000","SEMIMAJOR_AXIS":"6917.915","MEAN_MOTION_DDOT":"0.0000000000000","MEAN_ANOMALY":"273.6852","SITE":"AFWTR","OBJECT_NAME":"STARLINK-3952","NORAD_CAT_ID":"52534","OBJECT_ID":"2022-051B","PERIOD":"95.438","COUNTRY_CODE":"US","APOAPSIS":"540.506","ECCENTRICITY":"0.00010490","TLE_LINE1":"1 52534U 22051B   23156.87109357 -.00000818  00000-0 -33353-4 0  9996"},{"MEAN_MOTION_DOT":"0.00002165","INCLINATION":"53.2169","CENTER_NAME":"EARTH","RCS_SIZE":"LARGE","CLASSIFICATION_TYPE":"U","LAUNCH_DATE":"2022-05-13","TLE_LINE2":"2 52535  53.2169 333.4094 0001010  87.6728 272.4380 15.08849467 59297","ARG_OF_PERICENTER":"87.6728","EPOCH":"2023-06-05T20:49:02.703360","MEAN_MOTION":"15.08849467","DECAY_DATE":null,"TIME_SYSTEM":"UTC","ELEMENT_SET_NO":"999","GP_ID":"233286738","RA_OF_ASC_NODE":"333.4094","NORAD_CAT_ID":"52535","OBJECT_ID":"2022-051C","SEMIMAJOR_AXIS":"6917.851","MEAN_MOTION_DDOT":"0.0000000000000","MEAN_ANOMALY":"272.4380","SITE":"AFWTR","OBJECT_NAME":"STARLINK-3958","REV_AT_EPOCH":"5929","PERIAPSIS":"539.018","BSTAR":"0.00015402000000","REF_FRAME":"TEME","MEAN_ELEMENT_THEORY":"SGP4","OBJECT_TYPE":"PAYLOAD","FILE":"3925751","EPHEMERIS_TYPE":"0","TLE_LINE1":"1 52535U 22051C   23156.86739240  .00002165  00000-0  15402-3 0  9995","ECCENTRICITY":"0.00010100","APOAPSIS":"540.415","PERIOD":"95.437","COUNTRY_CODE":"US"}];
